{"type": "FeatureCollection", "features": [ {"type": "Feature", "properties": {"norad_id": 35023, "name": "COSMOS 2251 DEB", "group": "cosmos-2251-debris", "lat": -48.61911315838056, "lon": 21.56346877479018, "alt_km": 566.4421717864388, "timestamp": "2025-12-27T14:26:30.917238+00:00", "meta": {"OBJECT_NAME": "COSMOS 2251 DEB", "OBJECT_ID": "1993-036AGL", "EPOCH": "2025-12-26T15:15:20.415744", "MEAN_MOTION": 14.95526509, "ECCENTRICITY": 0.0033423, "INCLINATION": 74.0371, "RA_OF_ASC_NODE": 184.5532, "ARG_OF_PERICENTER": 260.5788, "MEAN_ANOMALY": 171.6189, "EPHEMERIS_TYPE": 0, "CLASSIFICATION_TYPE": "U", "NORAD_CAT_ID": 35023, "ELEMENT_SET_NO": 999, "REV_AT_EPOCH": 88487, "BSTAR": 0.0016022, "MEAN_MOTION_DOT": 0.00017965, "MEAN_MOTION_DDOT": 0}, "tle": {"line1": "1 35023U 93036AGL 25360.63565296  .00017965  00000+0  16022-2 0  9992", "line2": "2 35023  74.0371 184.5532 0033423 260.5788 171.6189 14.95526509884870"}}, "geometry": {"type": "Point", "coordinates": [21.56346877479018, -48.61911315838056]}}, {"type": "Feature", "properties": {"norad_id": 35025, "name": "COSMOS 2251 DEB", "group": "cosmos-2251-debris", "lat": 1.0227648778033853, "lon": -146.48457852923366, "alt_km": 688.630589327855, "timestamp": "2025-12-27T14:26:30.917249+00:00", "meta": {"OBJECT_NAME": "COSMOS 2251 DEB", "OBJECT_ID": "1993-036AGN", "EPOCH": "2025-12-25T12:43:05.392128", "MEAN_MOTION": 14.7277334, "ECCENTRICITY": 0.0085734, "INCLINATION": 73.9378, "RA_OF_ASC_NODE": 37.8677, "ARG_OF_PERICENTER": 308.0127, "MEAN_ANOMALY": 51.3326, "EPHEMERIS_TYPE": 0, "CLASSIFICATION_TYPE": "U", "NORAD_CAT_ID": 35025, "ELEMENT_SET_NO": 999, "REV_AT_EPOCH": 88831, "BSTAR": 0.00045426, "MEAN_MOTION_DOT": 3.041e-05, "MEAN_MOTION_DDOT": 0}, "tle": {"line1": "1 35025U 93036AGN 25359.52992352  .00003041  00000+0  45426-3 0  9998", "line2": "2 35025  73.9378  37.8677 0085734 308.0127  51.3326 14.72773340888316"}}, "geometry": {"type": "Point", "coordinates": [-146.48457852923366, 1.0227648778033853]}}, {"type": "Feature", "properties": {"norad_id": 35026, "name": "COSMOS 2251 DEB", "group": "cosmos-2251-debris", "lat": 65.68348347711022, "lon": 71.47403018401877, "alt_km": 685.1356246204032, "timestamp": "2025-12-27T14:26:30.917259+00:00", "meta": {"OBJECT_NAME": "COSMOS 2251 DEB", "OBJECT_ID": "1993-036AGP", "EPOCH": "2025-12-27T02:27:21.059712", "MEAN_MOTION": 14.53633351, "ECCENTRICITY": 0.00826984, "INCLINATION": 74.0476, "RA_OF_ASC_NODE": 291.6889, "ARG_OF_PERICENTER": 41.1171, "MEAN_ANOMALY": 334.1243, "EPHEMERIS_TYPE": 0, "CLASSIFICATION_TYPE": "U", "NORAD_CAT_ID": 35026, "ELEMENT_SET_NO": 999, "REV_AT_EPOCH": 88352, "BSTAR": 0.00010031799, "MEAN_MOTION_DOT": 4.09e-06, "MEAN_MOTION_DDOT": 0}, "tle": {"line1": "1 35026U 93036AGP 25361.10232708  .00000409  00000+0  10032-3 0  9998", "line2": "2 35026  74.0476 291.6889 0082698  41.1171 334.1243 14.53633351883527"}}, "geometry": {"type": "Point", "coordinates": [71.47403018401877, 65.68348347711022]}}, {"type": "Feature", "properties": {"norad_id": 35028, "name": "COSMOS 2251 DEB", "group": "cosmos-2251-debris", "lat": 17.18042875575578, "lon": -112.14413948993239, "alt_km": 645.7863320446295, "timestamp": "2025-12-27T14:26:30.917269+00:00", "meta": {"OBJECT_NAME": "COSMOS 2251 DEB", "OBJECT_ID": "1993-036AGR", "EPOCH": "2025-12-26T09:14:11.078016", "MEAN_MOTION": 14.56582839, "ECCENTRICITY": 0.008309, "INCLINATION": 74.0377, "RA_OF_ASC_NODE": 245.0874, "ARG_OF_PERICENTER": 15.167, "MEAN_ANOMALY": 104.3209, "EPHEMERIS_TYPE": 0, "CLASSIFICATION_TYPE": "U", "NORAD_CAT_ID": 35028, "ELEMENT_SET_NO": 999, "REV_AT_EPOCH": 88484, "BSTAR": 9.0149e-05, "MEAN_MOTION_DOT": 3.89e-06, "MEAN_MOTION_DDOT": 0}, "tle": {"line1": "1 35028U 93036AGR 25360.38485044  .00000389  00000+0  90149-4 0  9997", "line2": "2 35028  74.0377 245.0874 0083090  15.1670 104.3209 14.56582839884840"}}, "geometry": {"type": "Point", "coordinates": [-112.14413948993239, 17.18042875575578]}}, {"type": "Feature", "properties": {"norad_id": 35031, "name": "COSMOS 2251 DEB", "group": "cosmos-2251-debris", "lat": 31.06789934937873, "lon": -118.18703832355166, "alt_km": 757.2429340271938, "timestamp": "2025-12-27T14:26:30.917280+00:00", "meta": {"OBJECT_NAME": "COSMOS 2251 DEB", "OBJECT_ID": "1993-036AGU", "EPOCH": "2025-12-26T08:14:40.104672", "MEAN_MOTION": 14.38307542, "ECCENTRICITY": 0.0019397, "INCLINATION": 74.0373, "RA_OF_ASC_NODE": 234.2004, "ARG_OF_PERICENTER": 325.2705, "MEAN_ANOMALY": 34.7182, "EPHEMERIS_TYPE": 0, "CLASSIFICATION_TYPE": "U", "NORAD_CAT_ID": 35031, "ELEMENT_SET_NO": 999, "REV_AT_EPOCH": 65479, "BSTAR": 0.0001513, "MEAN_MOTION_DOT": 4.35e-06, "MEAN_MOTION_DDOT": 0}, "tle": {"line1": "1 35031U 93036AGU 25360.34351973  .00000435  00000+0  15130-3 0  9998", "line2": "2 35031  74.0373 234.2004 0019397 325.2705  34.7182 14.38307542654799"}}, "geometry": {"type": "Point", "coordinates": [-118.18703832355166, 31.06789934937873]}}, {"type": "Feature", "properties": {"norad_id": 35032, "name": "COSMOS 2251 DEB", "group": "cosmos-2251-debris", "lat": -73.4510401476384, "lon": -98.52512272578024, "alt_km": 700.5855641388298, "timestamp": "2025-12-27T14:26:30.917290+00:00", "meta": {"OBJECT_NAME": "COSMOS 2251 DEB", "OBJECT_ID": "1993-036AGV", "EPOCH": "2025-12-27T05:02:15.561312", "MEAN_MOTION": 14.58833461, "ECCENTRICITY": 0.0067341, "INCLINATION": 73.8522, "RA_OF_ASC_NODE": 339.4044, "ARG_OF_PERICENTER": 188.0447, "MEAN_ANOMALY": 187.7614, "EPHEMERIS_TYPE": 0, "CLASSIFICATION_TYPE": "U", "NORAD_CAT_ID": 35032, "ELEMENT_SET_NO": 999, "REV_AT_EPOCH": 87885, "BSTAR": 0.00086177456, "MEAN_MOTION_DOT": 4.131e-05, "MEAN_MOTION_DDOT": 0}, "tle": {"line1": "1 35032U 93036AGV 25361.20990233  .00004131  00000+0  86177-3 0  9999", "line2": "2 35032  73.8522 339.4044 0067341 188.0447 187.7614 14.58833461878855"}}, "geometry": {"type": "Point", "coordinates": [-98.52512272578024, -73.4510401476384]}}, {"type": "Feature", "properties": {"norad_id": 35033, "name": "COSMOS 2251 DEB", "group": "cosmos-2251-debris", "lat": -54.7504946621957, "lon": -7.473410235602114, "alt_km": 719.1508795813697, "timestamp": "2025-12-27T14:26:30.917301+00:00", "meta": {"OBJECT_NAME": "COSMOS 2251 DEB", "OBJECT_ID": "1993-036AGW", "EPOCH": "2025-12-19T05:07:27.625152", "MEAN_MOTION": 14.50959586, "ECCENTRICITY": 0.001448, "INCLINATION": 74.0251, "RA_OF_ASC_NODE": 164.3945, "ARG_OF_PERICENTER": 270.8601, "MEAN_ANOMALY": 89.0901, "EPHEMERIS_TYPE": 0, "CLASSIFICATION_TYPE": "U", "NORAD_CAT_ID": 35033, "ELEMENT_SET_NO": 999, "REV_AT_EPOCH": 66021, "BSTAR": 0.00048139, "MEAN_MOTION_DOT": 1.877e-05, "MEAN_MOTION_DDOT": 0}, "tle": {"line1": "1 35033U 93036AGW 25353.21351418  .00001877  00000+0  48139-3 0  9998", "line2": "2 35033  74.0251 164.3945 0014480 270.8601  89.0901 14.50959586660212"}}, "geometry": {"type": "Point", "coordinates": [-7.473410235602114, -54.7504946621957]}}, {"type": "Feature", "properties": {"norad_id": 35038, "name": "COSMOS 2251 DEB", "group": "cosmos-2251-debris", "lat": -73.26422456646502, "lon": -92.76034652665163, "alt_km": 815.3364171693511, "timestamp": "2025-12-27T14:26:30.917311+00:00", "meta": {"OBJECT_NAME": "COSMOS 2251 DEB", "OBJECT_ID": "1993-036AHB", "EPOCH": "2025-12-16T02:43:57.942048", "MEAN_MOTION": 14.25166694, "ECCENTRICITY": 0.01140711, "INCLINATION": 74.1077, "RA_OF_ASC_NODE": 36.5236, "ARG_OF_PERICENTER": 19.3791, "MEAN_ANOMALY": 9.3469, "EPHEMERIS_TYPE": 0, "CLASSIFICATION_TYPE": "U", "NORAD_CAT_ID": 35038, "ELEMENT_SET_NO": 999, "REV_AT_EPOCH": 85617, "BSTAR": 0.00096319549, "MEAN_MOTION_DOT": 2.397e-05, "MEAN_MOTION_DDOT": 0}, "tle": {"line1": "1 35038U 93036AHB 25350.11386507  .00002397  00000+0  96320-3 0  9999", "line2": "2 35038  74.1077  36.5236 0114071  19.3791   9.3469 14.25166694856178"}}, "geometry": {"type": "Point", "coordinates": [-92.76034652665163, -73.26422456646502]}}, {"type": "Feature", "properties": {"norad_id": 35043, "name": "COSMOS 2251 DEB", "group": "cosmos-2251-debris", "lat": 12.408886637032946, "lon": 19.89901513708325, "alt_km": 695.0855412461315, "timestamp": "2025-12-27T14:26:30.917321+00:00", "meta": {"OBJECT_NAME": "COSMOS 2251 DEB", "OBJECT_ID": "1993-036AHG", "EPOCH": "2025-12-26T18:53:03.575616", "MEAN_MOTION": 14.77645294, "ECCENTRICITY": 0.00948894, "INCLINATION": 73.9519, "RA_OF_ASC_NODE": 17.8748, "ARG_OF_PERICENTER": 224.707, "MEAN_ANOMALY": 134.6429, "EPHEMERIS_TYPE": 0, "CLASSIFICATION_TYPE": "U", "NORAD_CAT_ID": 35043, "ELEMENT_SET_NO": 999, "REV_AT_EPOCH": 67626, "BSTAR": 0.0032488799, "MEAN_MOTION_DOT": 0.00025114, "MEAN_MOTION_DDOT": 0}, "tle": {"line1": "1 35043U 93036AHG 25360.78684694  .00025114  00000+0  32489-2 0  9994", "line2": "2 35043  73.9519  17.8748 0094889 224.7070 134.6429 14.77645294676261"}}, "geometry": {"type": "Point", "coordinates": [19.89901513708325, 12.408886637032946]}}, {"type": "Feature", "properties": {"norad_id": 35045, "name": "COSMOS 2251 DEB", "group": "cosmos-2251-debris", "lat": 46.71980814904769, "lon": 44.535955271600976, "alt_km": 993.7533022662456, "timestamp": "2025-12-27T14:26:30.917331+00:00", "meta": {"OBJECT_NAME": "COSMOS 2251 DEB", "OBJECT_ID": "1993-036AHJ", "EPOCH": "2025-12-24T19:20:26.125152", "MEAN_MOTION": 14.0041252, "ECCENTRICITY": 0.01839955, "INCLINATION": 73.7191, "RA_OF_ASC_NODE": 31.3925, "ARG_OF_PERICENTER": 271.7742, "MEAN_ANOMALY": 86.2325, "EPHEMERIS_TYPE": 0, "CLASSIFICATION_TYPE": "U", "NORAD_CAT_ID": 35045, "ELEMENT_SET_NO": 999, "REV_AT_EPOCH": 84812, "BSTAR": 0.0006276669, "MEAN_MOTION_DOT": 1.049e-05, "MEAN_MOTION_DDOT": 0}, "tle": {"line1": "1 35045U 93036AHJ 25358.80585793  .00001049  00000+0  62767-3 0  9990", "line2": "2 35045  73.7191  31.3925 0183995 271.7742  86.2325 14.00412520848123"}}, "geometry": {"type": "Point", "coordinates": [44.535955271600976, 46.71980814904769]}}]}